ONEWEB-0198             
1 48216U 21031G   23299.58615173 -.00000723  00000+0 -19846-2 0  9992
2 48216  87.8933 121.7438 0001377  81.1592 278.9693 13.14506699121744
ONEWEB-0189             
1 48217U 21031H   23299.75105770 -.00000054  00000+0 -18014-3 0  9993
2 48217  87.8937 121.6887 0001025  90.5374 269.5873 13.14500529121526
ONEWEB-0196             
1 48218U 21031J   23299.80603636  .00000347  00000+0  90118-3 0  9992
2 48218  87.8938 121.6739 0001440  83.9185 276.2109 13.14504897121520
ONEWEB-0183             
1 48219U 21031K   23299.55019940  .00000025  00000+0  32221-4 0  9999
2 48219  87.8937 121.7448 0001541  91.1651 268.9655 13.14501318121595
ONEWEB-0185             
1 48220U 21031L   23299.80709594  .00000294  00000+0  75905-3 0  9993
2 48220  87.8937 121.6680 0001562  95.2439 264.8869 13.14500925121557
ONEWEB-0187             
1 48221U 21031M   23299.55336506  .00000385  00000+0  10040-2 0  9994
2 48221  87.8938 121.7478 0001691  84.4794 275.6529 13.14498550121533
ONEWEB-0192             
1 48222U 21031N   23299.75528559 -.00000085  00000+0 -26311-3 0  9996
2 48222  87.8981 121.6794 0001394  85.0666 275.0623 13.14501108121484
ONEWEB-0219             
1 48223U 21031P   23299.58403203 -.00000348  00000+0 -97432-3 0  9990
2 48223  87.8937 121.7158 0001547  91.9782 268.1524 13.14505487121652
